{
  "type": "FeatureCollection",
  "features": [
    {
      "type": "Feature",
      "properties": {
        "norad_id": 28054,
        "name": "DMSP 5D-3 F16 (USA 172)",
        "group": "weather",
        "lat": -64.84303675203094,
        "lon": 37.835648171406525,
        "alt_km": 847.1222508818082,
        "timestamp": "2025-12-26T12:57:38.908710+00:00",
        "meta_object_name": "DMSP 5D-3 F16 (USA 172)",
        "meta_object_id": "2003-048A",
        "meta_epoch": "2025-12-26T06:46:21.370656",
        "meta_mean_motion": 14.14428877,
        "meta_eccentricity": 0.00062428,
        "meta_inclination": 99.0038,
        "meta_ra_of_asc_node": 17.8451,
        "meta_arg_of_pericenter": 277.3094,
        "meta_mean_anomaly": 144.121,
        "meta_ephemeris_type": 0,
        "meta_classification_type": "U",
        "meta_norad_cat_id": 28054,
        "meta_element_set_no": 999,
        "meta_rev_at_epoch": 14504,
        "meta_bstar": 8.3744637e-05,
        "meta_mean_motion_dot": 1.15e-06,
        "meta_mean_motion_ddot": 0,
        "tle_line1": "1 28054U 03048A   25360.28219179  .00000115  00000+0  83745-4 0  9996",
        "tle_line2": "2 28054  99.0038  17.8451 0006242 277.3094 144.1210 14.14428877145045"
      },
      "geometry": {
        "type": "Point",
        "coordinates": [
          37.835648171406525,
          -64.84303675203094
        ]
      }
    },
    {
      "type": "Feature",
      "properties": {
        "norad_id": 28912,
        "name": "METEOSAT-9 (MSG-2)",
        "group": "weather",
        "lat": -8.870834440080268,
        "lon": -25.45335826645949,
        "alt_km": 35485.813257289796,
        "timestamp": "2025-12-26T12:57:38.908759+00:00",
        "meta_object_name": "METEOSAT-9 (MSG-2)",
        "meta_object_id": "2005-049B",
        "meta_epoch": "2025-12-24T18:27:10.310976",
        "meta_mean_motion": 1.00268275,
        "meta_eccentricity": 0.00719695,
        "meta_inclination": 8.9553,
        "meta_ra_of_asc_node": 55.846,
        "meta_arg_of_pericenter": 282.2974,
        "meta_mean_anomaly": 77.0088,
        "meta_ephemeris_type": 0,
        "meta_classification_type": "U",
        "meta_norad_cat_id": 28912,
        "meta_element_set_no": 999,
        "meta_rev_at_epoch": 524,
        "meta_bstar": 0,
        "meta_mean_motion_dot": 1.45e-06,
        "meta_mean_motion_ddot": 0,
        "tle_line1": "1 28912U 05049B   25358.76886934  .00000145  00000+0  00000+0 0  9992",
        "tle_line2": "2 28912   8.9553  55.8460 0071969 282.2974  77.0088  1.00268275  5240"
      },
      "geometry": {
        "type": "Point",
        "coordinates": [
          -25.45335826645949,
          -8.870834440080268
        ]
      }
    },
    {
      "type": "Feature",
      "properties": {
        "norad_id": 29522,
        "name": "DMSP 5D-3 F17 (USA 191)",
        "group": "weather",
        "lat": -75.52792181263706,
        "lon": 149.0591698985922,
        "alt_km": 847.9296728581776,
        "timestamp": "2025-12-26T12:57:38.908777+00:00",
        "meta_object_name": "DMSP 5D-3 F17 (USA 191)",
        "meta_object_id": "2006-050A",
        "meta_epoch": "2025-12-26T06:39:07.957152",
        "meta_mean_motion": 14.14925237,
        "meta_eccentricity": 0.00099932,
        "meta_inclination": 98.7393,
        "meta_ra_of_asc_node": 5.3843,
        "meta_arg_of_pericenter": 184.6484,
        "meta_mean_anomaly": 175.4599,
        "meta_ephemeris_type": 0,
        "meta_classification_type": "U",
        "meta_norad_cat_id": 29522,
        "meta_element_set_no": 999,
        "meta_rev_at_epoch": 98796,
        "meta_bstar": 0.00010966128,
        "meta_mean_motion_dot": 1.69e-06,
        "meta_mean_motion_ddot": 0,
        "tle_line1": "1 29522U 06050A   25360.27717543  .00000169  00000+0  10966-3 0  9993",
        "tle_line2": "2 29522  98.7393   5.3843 0009993 184.6484 175.4599 14.14925237987966"
      },
      "geometry": {
        "type": "Point",
        "coordinates": [
          149.0591698985922,
          -75.52792181263706
        ]
      }
    },
    {
      "type": "Feature",
      "properties": {
        "norad_id": 32958,
        "name": "FENGYUN 3A",
        "group": "weather",
        "lat": -19.962076953450026,
        "lon": 116.59974079983589,
        "alt_km": 829.8408118754978,
        "timestamp": "2025-12-26T12:57:38.908791+00:00",
        "meta_object_name": "FENGYUN 3A",
        "meta_object_id": "2008-026A",
        "meta_epoch": "2025-12-25T20:47:43.211904",
        "meta_mean_motion": 14.19518678,
        "meta_eccentricity": 0.00076064,
        "meta_inclination": 98.6714,
        "meta_ra_of_asc_node": 299.1179,
        "meta_arg_of_pericenter": 267.7947,
        "meta_mean_anomaly": 92.2359,
        "meta_ephemeris_type": 0,
        "meta_classification_type": "U",
        "meta_norad_cat_id": 32958,
        "meta_element_set_no": 999,
        "meta_rev_at_epoch": 91081,
        "meta_bstar": 8.5573603e-05,
        "meta_mean_motion_dot": 1.37e-06,
        "meta_mean_motion_ddot": 0,
        "tle_line1": "1 32958U 08026A   25359.86647236  .00000137  00000+0  85574-4 0  9992",
        "tle_line2": "2 32958  98.6714 299.1179 0007606 267.7947  92.2359 14.19518678910812"
      },
      "geometry": {
        "type": "Point",
        "coordinates": [
          116.59974079983589,
          -19.962076953450026
        ]
      }
    },
    {
      "type": "Feature",
      "properties": {
        "norad_id": 35491,
        "name": "GOES 14",
        "group": "weather",
        "lat": 1.2415134702115211,
        "lon": 171.23263218703974,
        "alt_km": 35835.8999394705,
        "timestamp": "2025-12-26T12:57:38.908806+00:00",
        "meta_object_name": "GOES 14",
        "meta_object_id": "2009-033A",
        "meta_epoch": "2025-12-26T05:50:36.926016",
        "meta_mean_motion": 1.00097068,
        "meta_eccentricity": 7.388e-05,
        "meta_inclination": 1.2369,
        "meta_ra_of_asc_node": 85.265,
        "meta_arg_of_pericenter": 193.4682,
        "meta_mean_anomaly": 145.6502,
        "meta_ephemeris_type": 0,
        "meta_classification_type": "U",
        "meta_norad_cat_id": 35491,
        "meta_element_set_no": 999,
        "meta_rev_at_epoch": 485,
        "meta_bstar": 0,
        "meta_mean_motion_dot": 4.1e-07,
        "meta_mean_motion_ddot": 0,
        "tle_line1": "1 35491U 09033A   25360.24348294  .00000041  00000+0  00000+0 0  9992",
        "tle_line2": "2 35491   1.2369  85.2650 0000738 193.4682 145.6502  1.00097068  4853"
      },
      "geometry": {
        "type": "Point",
        "coordinates": [
          171.23263218703974,
          1.2415134702115211
        ]
      }
    },
    {
      "type": "Feature",
      "properties": {
        "norad_id": 35951,
        "name": "DMSP 5D-3 F18 (USA 210)",
        "group": "weather",
        "lat": 60.108087852293,
        "lon": 172.66366917340326,
        "alt_km": 837.5417756645447,
        "timestamp": "2025-12-26T12:57:38.908818+00:00",
        "meta_object_name": "DMSP 5D-3 F18 (USA 210)",
        "meta_object_id": "2009-057A",
        "meta_epoch": "2025-12-26T05:36:49.582944",
        "meta_mean_motion": 14.14778073,
        "meta_eccentricity": 0.00116574,
        "meta_inclination": 98.8851,
        "meta_ra_of_asc_node": 336.5682,
        "meta_arg_of_pericenter": 27.0399,
        "meta_mean_anomaly": 333.1379,
        "meta_ephemeris_type": 0,
        "meta_classification_type": "U",
        "meta_norad_cat_id": 35951,
        "meta_element_set_no": 999,
        "meta_rev_at_epoch": 83513,
        "meta_bstar": 0.00017370937,
        "meta_mean_motion_dot": 2.9e-06,
        "meta_mean_motion_ddot": 0,
        "tle_line1": "1 35951U 09057A   25360.23390721  .00000290  00000+0  17371-3 0  9999",
        "tle_line2": "2 35951  98.8851 336.5682 0011657  27.0399 333.1379 14.14778073835138"
      },
      "geometry": {
        "type": "Point",
        "coordinates": [
          172.66366917340326,
          60.108087852293
        ]
      }
    },
    {
      "type": "Feature",
      "properties": {
        "norad_id": 36411,
        "name": "EWS-G2 (GOES 15)",
        "group": "weather",
        "lat": -0.849156104379137,
        "lon": -8.89803182414177,
        "alt_km": 35784.41981202438,
        "timestamp": "2025-12-26T12:57:38.908831+00:00",
        "meta_object_name": "EWS-G2 (GOES 15)",
        "meta_object_id": "2010-008A",
        "meta_epoch": "2025-12-26T01:20:32.726976",
        "meta_mean_motion": 1.00270948,
        "meta_eccentricity": 0.00056288,
        "meta_inclination": 0.8445,
        "meta_ra_of_asc_node": 86.073,
        "meta_arg_of_pericenter": 179.6686,
        "meta_mean_anomaly": 270.5509,
        "meta_ephemeris_type": 0,
        "meta_classification_type": "U",
        "meta_norad_cat_id": 36411,
        "meta_element_set_no": 999,
        "meta_rev_at_epoch": 5790,
        "meta_bstar": 0,
        "meta_mean_motion_dot": 6e-07,
        "meta_mean_motion_ddot": 0,
        "tle_line1": "1 36411U 10008A   25360.05593434  .00000060  00000+0  00000+0 0  9997",
        "tle_line2": "2 36411   0.8445  86.0730 0005628 179.6686 270.5509  1.00270948 57906"
      },
      "geometry": {
        "type": "Point",
        "coordinates": [
          -8.89803182414177,
          -0.849156104379137
        ]
      }
    }
  ]
}